[{"OBJECT_NAME":"STARLINK-34768","OBJECT_ID":"2025-167T","EPOCH":"2026-03-09T04:46:49.943424","MEAN_MOTION":15.30193923,"ECCENTRICITY":0.00011136,"INCLINATION":53.162,"RA_OF_ASC_NODE":29.0121,"ARG_OF_PERICENTER":92.0767,"MEAN_ANOMALY":268.0361,"EPHEMERIS_TYPE":0,"CLASSIFICATION_TYPE":"U","NORAD_CAT_ID":65095,"ELEMENT_SET_NO":999,"REV_AT_EPOCH":3340,"BSTAR":0.00095792648,"MEAN_MOTION_DOT":0.00028114,"MEAN_MOTION_DDOT":0},{"OBJECT_NAME":"CZ-4B R\/B","OBJECT_ID":"2010-051C","EPOCH":"2026-03-09T16:48:37.977120","MEAN_MOTION":15.17426017,"ECCENTRICITY":0.00758037,"INCLINATION":97.7974,"RA_OF_ASC_NODE":110.8647,"ARG_OF_PERICENTER":95.044,"MEAN_ANOMALY":265.9451,"EPHEMERIS_TYPE":0,"CLASSIFICATION_TYPE":"U","NORAD_CAT_ID":37181,"ELEMENT_SET_NO":999,"REV_AT_EPOCH":84355,"BSTAR":0.00029718512,"MEAN_MOTION_DOT":6.328e-5,"MEAN_MOTION_DDOT":0}]
